GLOBALSTAR M084 [+]     
1 38040U 11080A   23345.18875976 -.00000093  00000+0  59928-4 0  9992
2 38040  52.0025 295.0488 0000414  28.4307  75.2934 12.62268926552983
GLOBALSTAR M080 [+]     
1 38041U 11080B   23345.07804247 -.00000104  00000+0 -87110-6 0  9994
2 38041  52.0077 296.7983 0000210  25.9938  54.2609 12.62267129552952
GLOBALSTAR M082 [+]     
1 38042U 11080C   23344.93240750 -.00000086  00000+0  99840-4 0  9991
2 38042  52.0077 252.6275 0001441  60.7028  18.7162 12.62264026553674
GLOBALSTAR M092 [+]     
1 38043U 11080D   23345.22320972 -.00000102  00000+0  85533-5 0  9994
2 38043  52.0110 342.0891 0000189 339.4473 101.7773 12.62247536552205
GLOBALSTAR M090 [+]     
1 38044U 11080E   23344.95905422 -.00000079  00000+0  13976-3 0  9996
2 38044  51.9882 247.0687 0001173  66.0015  15.1717 12.62264410553629
GLOBALSTAR M086 [+]     
1 38045U 11080F   23344.91589681 -.00000080  00000+0  13085-3 0  9991
2 38045  51.9893 247.7094 0001132 119.3653   4.6497 12.62265419553567
GLOBALSTAR M097 [+]     
1 39072U 13005A   23344.67738941 -.00000081  00000+0  12873-3 0  9994
2 39072  52.0020 162.4167 0001386  99.0057 261.0966 12.62273584500787
GLOBALSTAR M093 [+]     
1 39073U 13005B   23344.65087277 -.00000086  00000+0  10036-3 0  9996
2 39073  51.9784 156.6875 0001553 104.7830 255.3208 12.62278267500736
